{
  "type": "FeatureCollection",
  "features": [
    {
      "type": "Feature",
      "properties": {
        "norad_id": 43783,
        "name": "KAZSTSAT",
        "group": "resource",
        "lat": -71.3449594380476,
        "lon": 49.45243475355421,
        "alt_km": 572.3538796521498,
        "timestamp": "2025-12-17T15:50:09.434589+00:00",
        "meta_object_name": "KAZSTSAT",
        "meta_object_id": "2018-099AB",
        "meta_epoch": "2025-12-17T08:09:06.065856",
        "meta_mean_motion": 14.9936173,
        "meta_eccentricity": 0.0005917,
        "meta_inclination": 97.4543,
        "meta_ra_of_asc_node": 26.3271,
        "meta_arg_of_pericenter": 309.8479,
        "meta_mean_anomaly": 50.2223,
        "meta_ephemeris_type": 0,
        "meta_classification_type": "U",
        "meta_norad_cat_id": 43783,
        "meta_element_set_no": 999,
        "meta_rev_at_epoch": 38405,
        "meta_bstar": 5.2393034e-05,
        "meta_mean_motion_dot": 5.85e-06,
        "meta_mean_motion_ddot": 0,
        "tle_line1": "1 43783U 18099AB  25351.33965354  .00000585  00000+0  52393-4 0  9999",
        "tle_line2": "2 43783  97.4543  26.3271 0005917 309.8479  50.2223 14.99361730384059"
      },
      "geometry": {
        "type": "Point",
        "coordinates": [
          49.45243475355421,
          -71.3449594380476
        ]
      }
    },
    {
      "type": "Feature",
      "properties": {
        "norad_id": 43831,
        "name": "SAUDISAT 5A",
        "group": "resource",
        "lat": 81.46009140398986,
        "lon": -7.322539334091569,
        "alt_km": 473.9749898785176,
        "timestamp": "2025-12-17T15:50:09.434600+00:00",
        "meta_object_name": "SAUDISAT 5A",
        "meta_object_id": "2018-102A",
        "meta_epoch": "2025-12-17T07:35:33.400320",
        "meta_mean_motion": 15.25713701,
        "meta_eccentricity": 0.00115692,
        "meta_inclination": 97.3354,
        "meta_ra_of_asc_node": 51.4194,
        "meta_arg_of_pericenter": 62.2683,
        "meta_mean_anomaly": 297.9728,
        "meta_ephemeris_type": 0,
        "meta_classification_type": "U",
        "meta_norad_cat_id": 43831,
        "meta_element_set_no": 999,
        "meta_rev_at_epoch": 38792,
        "meta_bstar": 0.00020298311,
        "meta_mean_motion_dot": 5.112e-05,
        "meta_mean_motion_ddot": 0,
        "tle_line1": "1 43831U 18102A   25351.31635880  .00005112  00000+0  20298-3 0  9993",
        "tle_line2": "2 43831  97.3354  51.4194 0011569  62.2683 297.9728 15.25713701387920"
      },
      "geometry": {
        "type": "Point",
        "coordinates": [
          -7.322539334091569,
          81.46009140398986
        ]
      }
    },
    {
      "type": "Feature",
      "properties": {
        "norad_id": 43833,
        "name": "SAUDISAT 5B",
        "group": "resource",
        "lat": 35.39711945924057,
        "lon": -120.23735215712644,
        "alt_km": 483.9563400466632,
        "timestamp": "2025-12-17T15:50:09.434610+00:00",
        "meta_object_name": "SAUDISAT 5B",
        "meta_object_id": "2018-102C",
        "meta_epoch": "2025-12-17T07:20:20.467680",
        "meta_mean_motion": 15.26063876,
        "meta_eccentricity": 0.00122895,
        "meta_inclination": 97.3448,
        "meta_ra_of_asc_node": 54.1558,
        "meta_arg_of_pericenter": 64.343,
        "meta_mean_anomaly": 295.9076,
        "meta_ephemeris_type": 0,
        "meta_classification_type": "U",
        "meta_norad_cat_id": 43833,
        "meta_element_set_no": 999,
        "meta_rev_at_epoch": 38803,
        "meta_bstar": 0.00018822207,
        "meta_mean_motion_dot": 4.786e-05,
        "meta_mean_motion_ddot": 0,
        "tle_line1": "1 43833U 18102C   25351.30579245  .00004786  00000+0  18822-3 0  9992",
        "tle_line2": "2 43833  97.3448  54.1558 0012289  64.3430 295.9076 15.26063876388032"
      },
      "geometry": {
        "type": "Point",
        "coordinates": [
          -120.23735215712644,
          35.39711945924057
        ]
      }
    },
    {
      "type": "Feature",
      "properties": {
        "norad_id": 44622,
        "name": "GAOFEN-10R",
        "group": "resource",
        "lat": 42.22361892782116,
        "lon": -68.1736277362533,
        "alt_km": 611.9344007107857,
        "timestamp": "2025-12-17T15:50:09.434621+00:00",
        "meta_object_name": "GAOFEN-10R",
        "meta_object_id": "2019-066A",
        "meta_epoch": "2025-12-17T07:32:47.243616",
        "meta_mean_motion": 14.82807594,
        "meta_eccentricity": 0.00075726,
        "meta_inclination": 98.0283,
        "meta_ra_of_asc_node": 298.8385,
        "meta_arg_of_pericenter": 28.6855,
        "meta_mean_anomaly": 331.4773,
        "meta_ephemeris_type": 0,
        "meta_classification_type": "U",
        "meta_norad_cat_id": 44622,
        "meta_element_set_no": 999,
        "meta_rev_at_epoch": 33542,
        "meta_bstar": 0.00016908478,
        "meta_mean_motion_dot": 1.314e-05,
        "meta_mean_motion_ddot": 0,
        "tle_line1": "1 44622U 19066A   25351.31443569  .00001314  00000+0  16908-3 0  9996",
        "tle_line2": "2 44622  98.0283 298.8385 0007572  28.6855 331.4773 14.82807594335421"
      },
      "geometry": {
        "type": "Point",
        "coordinates": [
          -68.1736277362533,
          42.22361892782116
        ]
      }
    },
    {
      "type": "Feature",
      "properties": {
        "norad_id": 44804,
        "name": "CARTOSAT-3",
        "group": "resource",
        "lat": 49.955884313749685,
        "lon": -119.85058303770633,
        "alt_km": 499.21100683250825,
        "timestamp": "2025-12-17T15:50:09.434631+00:00",
        "meta_object_name": "CARTOSAT-3",
        "meta_object_id": "2019-081A",
        "meta_epoch": "2025-12-17T07:21:56.382912",
        "meta_mean_motion": 15.19192601,
        "meta_eccentricity": 0.00139876,
        "meta_inclination": 97.4581,
        "meta_ra_of_asc_node": 50.8334,
        "meta_arg_of_pericenter": 68.7175,
        "meta_mean_anomaly": 291.5552,
        "meta_ephemeris_type": 0,
        "meta_classification_type": "U",
        "meta_norad_cat_id": 44804,
        "meta_element_set_no": 999,
        "meta_rev_at_epoch": 33585,
        "meta_bstar": 0.00021586681,
        "meta_mean_motion_dot": 4.484e-05,
        "meta_mean_motion_ddot": 0,
        "tle_line1": "1 44804U 19081A   25351.30690258  .00004484  00000+0  21587-3 0  9993",
        "tle_line2": "2 44804  97.4581  50.8334 0013987  68.7175 291.5552 15.19192601335859"
      },
      "geometry": {
        "type": "Point",
        "coordinates": [
          -119.85058303770633,
          49.955884313749685
        ]
      }
    },
    {
      "type": "Feature",
      "properties": {
        "norad_id": 44819,
        "name": "GAOFEN-12 01",
        "group": "resource",
        "lat": -81.96284416671111,
        "lon": 74.30320943382006,
        "alt_km": 634.1043657316495,
        "timestamp": "2025-12-17T15:50:09.434642+00:00",
        "meta_object_name": "GAOFEN-12 01",
        "meta_object_id": "2019-082A",
        "meta_epoch": "2025-12-17T06:30:08.053920",
        "meta_mean_motion": 14.80662668,
        "meta_eccentricity": 0.00015916,
        "meta_inclination": 97.8124,
        "meta_ra_of_asc_node": 357.433,
        "meta_arg_of_pericenter": 209.0362,
        "meta_mean_anomaly": 151.0762,
        "meta_ephemeris_type": 0,
        "meta_classification_type": "U",
        "meta_norad_cat_id": 44819,
        "meta_element_set_no": 999,
        "meta_rev_at_epoch": 32717,
        "meta_bstar": 6.2466038e-05,
        "meta_mean_motion_dot": 4.29e-06,
        "meta_mean_motion_ddot": 0,
        "tle_line1": "1 44819U 19082A   25351.27092655  .00000429  00000+0  62466-4 0  9990",
        "tle_line2": "2 44819  97.8124 357.4330 0001591 209.0362 151.0762 14.80662668327171"
      },
      "geometry": {
        "type": "Point",
        "coordinates": [
          74.30320943382006,
          -81.96284416671111
        ]
      }
    },
    {
      "type": "Feature",
      "properties": {
        "norad_id": 44873,
        "name": "CSG-1",
        "group": "resource",
        "lat": 48.58367408758397,
        "lon": 163.87617978290123,
        "alt_km": 617.3670133511287,
        "timestamp": "2025-12-17T15:50:09.434652+00:00",
        "meta_object_name": "CSG-1",
        "meta_object_id": "2019-092A",
        "meta_epoch": "2025-12-17T07:30:48.320064",
        "meta_mean_motion": 14.82146494,
        "meta_eccentricity": 0.00014899,
        "meta_inclination": 97.8803,
        "meta_ra_of_asc_node": 172.5683,
        "meta_arg_of_pericenter": 86.9918,
        "meta_mean_anomaly": 273.1465,
        "meta_ephemeris_type": 0,
        "meta_classification_type": "U",
        "meta_norad_cat_id": 44873,
        "meta_element_set_no": 999,
        "meta_rev_at_epoch": 32453,
        "meta_bstar": 6.6459706e-05,
        "meta_mean_motion_dot": 4.77e-06,
        "meta_mean_motion_ddot": 0,
        "tle_line1": "1 44873U 19092A   25351.31305926  .00000477  00000+0  66460-4 0  9995",
        "tle_line2": "2 44873  97.8803 172.5683 0001489  86.9918 273.1465 14.82146494324536"
      },
      "geometry": {
        "type": "Point",
        "coordinates": [
          163.87617978290123,
          48.58367408758397
        ]
      }
    }
  ]
}